*******************************************************************************
 Revised: Jul 31, 2013         Neptune Barycenter                             8
 
 Dynamical point:
 ---------------
 The location of the center-of-mass of the Neptune system. The point about 
 which Neptune and its satellites revolve. See 899 for Neptune center.
*******************************************************************************
 
 
*******************************************************************************
Ephemeris / WWW_USER Mon Jan 15 15:14:45 2018 Pasadena, USA      / Horizons    
*******************************************************************************
Target body name: Neptune Barycenter (8)          {source: DE431mx}
Center body name: Solar System Barycenter (0)     {source: DE431mx}
Center-site name: BODY CENTER
*******************************************************************************
Start time      : A.D. 1689-Jan-05 00:00:00.0000 TDB
Stop  time      : A.D. 2018-Jan-25 00:00:00.0000 TDB
Step-size       : 59040 minutes
*******************************************************************************
Center geodetic : 0.00000000,0.00000000,0.0000000 {E-lon(deg),Lat(deg),Alt(km)}
Center cylindric: 0.00000000,0.00000000,0.0000000 {E-lon(deg),Dxy(km),Dz(km)}
Center radii    : (undefined)                                                  
Output units    : AU-D                                                         
Output type     : GEOMETRIC cartesian states
Output format   : 3 (position, velocity, LT, range, range-rate)
Reference frame : ICRF/J2000.0                                                 
Coordinate systm: Ecliptic and Mean Equinox of Reference Epoch                 
*******************************************************************************
JDTDB
   X     Y     Z
   VX    VY    VZ
   LT    RG    RR
*******************************************************************************
$$SOE
2374203.500000000 = A.D. 1788-Mar-31 00:00:00.0000 TDB 
 X =-2.794966090409764E+01 Y =-1.166951407239930E+01 Z = 8.838420477748565E-01
 VX= 1.191006710766852E-03 VY=-2.878033123337636E-03 VZ= 3.183165683059540E-05
 LT= 1.750031879575347E-01 RG= 3.030086269572839E+01 RR= 1.073066774381702E-05
2374244.500000000 = A.D. 1788-May-11 00:00:00.0000 TDB 
 X =-2.790057961858589E+01 Y =-1.178740863349164E+01 Z = 8.851392312623318E-01
 VX= 1.203198670710957E-03 VY=-2.872912532520603E-03 VZ= 3.144549515938962E-05
 LT= 1.750057169628536E-01 RG= 3.030130057942536E+01 RR= 1.062948834554955E-05
2374285.500000000 = A.D. 1788-Jun-21 00:00:00.0000 TDB 
 X =-2.785099891529224E+01 Y =-1.190509220008314E+01 Z = 8.864205709368352E-01
 VX= 1.215368519010802E-03 VY=-2.867740723463244E-03 VZ= 3.105878901728975E-05
 LT= 1.750082219919201E-01 RG= 3.030173431176291E+01 RR= 1.052816186439614E-05
2374326.500000000 = A.D. 1788-Aug-01 00:00:00.0000 TDB 
 X =-2.780091970506344E+01 Y =-1.202256267404960E+01 Z = 8.876860446116940E-01
 VX= 1.227516047625277E-03 VY=-2.862517785204243E-03 VZ= 3.067154506540746E-05
 LT= 1.750107030094825E-01 RG= 3.030216388663743E+01 RR= 1.042668454951663E-05
2374367.500000000 = A.D. 1788-Sep-11 00:00:00.0000 TDB 
 X =-2.775034290724663E+01 Y =-1.213981796092990E+01 Z = 8.889356303727989E-01
 VX= 1.239641049951305E-03 VY=-2.857243807474769E-03 VZ= 3.028376993764323E-05
 LT= 1.750131599792686E-01 RG= 3.030258929776853E+01 RR= 1.032505155698348E-05
2374408.500000000 = A.D. 1788-Oct-22 00:00:00.0000 TDB 
 X =-2.769926944963707E+01 Y =-1.225685596996363E+01 Z = 8.901693065776256E-01
 VX= 1.251743320375184E-03 VY=-2.851918881069459E-03 VZ= 2.989547025218283E-05
 LT= 1.750155928637845E-01 RG= 3.030301053866436E+01 RR= 1.022325752292925E-05
2374449.500000000 = A.D. 1788-Dec-02 00:00:00.0000 TDB 
 X =-2.764770026844452E+01 Y =-1.237367461413003E+01 Z = 8.913870518549083E-01
 VX= 1.263822654116791E-03 VY=-2.846543097548346E-03 VZ= 2.950665262144129E-05
 LT= 1.750180016242195E-01 RG= 3.030342760260509E+01 RR= 1.012129659992470E-05
2374490.500000000 = A.D. 1789-Jan-12 00:00:00.0000 TDB 
 X =-2.759563630824906E+01 Y =-1.249027181017630E+01 Z = 8.925888451040281E-01
 VX= 1.275878847681383E-03 VY=-2.841116549214719E-03 VZ= 2.911732363205030E-05
 LT= 1.750203862202727E-01 RG= 3.030384048261280E+01 RR= 1.001916204403463E-05
2374531.500000000 = A.D. 1789-Feb-22 00:00:00.0000 TDB 
 X =-2.754307852195021E+01 Y =-1.260664547865511E+01 Z = 8.937746654938368E-01
 VX= 1.287911698681164E-03 VY=-2.835639329409374E-03 VZ= 2.872748984501891E-05
 LT= 1.750227466099686E-01 RG= 3.030424917141966E+01 RR= 9.916846512463282E-06
2374572.500000000 = A.D. 1789-Apr-04 00:00:00.0000 TDB 
 X =-2.749002787072391E+01 Y =-1.272279354396672E+01 Z = 8.949444924619347E-01
 VX= 1.299921005810449E-03 VY=-2.830111532492943E-03 VZ= 2.833715780991421E-05
 LT= 1.750250827495282E-01 RG= 3.030465366144557E+01 RR= 9.814342096596600E-06
2374613.500000000 = A.D. 1789-May-15 00:00:00.0000 TDB 
 X =-2.743648532397845E+01 Y =-1.283871393440549E+01 Z = 8.960983057142510E-01
 VX= 1.311906568711749E-03 VY=-2.824533254100087E-03 VZ= 2.794633406750476E-05
 LT= 1.750273945932506E-01 RG= 3.030505394477770E+01 RR= 9.711640568624608E-06
2374654.500000000 = A.D. 1789-Jun-25 00:00:00.0000 TDB 
 X =-2.738245185932406E+01 Y =-1.295440458221184E+01 Z = 8.972360852248202E-01
 VX= 1.323868187666041E-03 VY=-2.818904591020873E-03 VZ= 2.755502515506031E-05
 LT= 1.750296820934837E-01 RG= 3.030545001316530E+01 RR= 9.608733632225695E-06
2374695.500000000 = A.D. 1789-Aug-05 00:00:00.0000 TDB 
 X =-2.732792846253882E+01 Y =-1.306986342361405E+01 Z = 8.983578112354471E-01
 VX= 1.335805664049812E-03 VY=-2.813225641032417E-03 VZ= 2.716323759423502E-05
 LT= 1.750319452005540E-01 RG= 3.030584185800769E+01 RR= 9.505612453080717E-06
2374736.500000000 = A.D. 1789-Sep-15 00:00:00.0000 TDB 
 X =-2.727291612752110E+01 Y =-1.318508839887801E+01 Z = 8.994634642549258E-01
 VX= 1.347718800262116E-03 VY=-2.807496503401631E-03 VZ= 2.677097789115457E-05
 LT= 1.750341838626517E-01 RG= 3.030622947033427E+01 RR= 9.402267961237195E-06
2374777.500000000 = A.D. 1789-Oct-26 00:00:00.0000 TDB 
 X =-2.721741585626079E+01 Y =-1.330007745237228E+01 Z = 9.005530250589756E-01
 VX= 1.359607399174618E-03 VY=-2.801717278932689E-03 VZ= 2.637825256303147E-05
 LT= 1.750363980258554E-01 RG= 3.030661284080886E+01 RR= 9.298691394231961E-06
2374818.500000000 = A.D. 1789-Dec-06 00:00:00.0000 TDB 
 X =-2.716142865881718E+01 Y =-1.341482853262618E+01 Z = 9.016264746907252E-01
 VX= 1.371471264317513E-03 VY=-2.795888069814604E-03 VZ= 2.598506813439251E-05
 LT= 1.750385876341820E-01 RG= 3.030699195973827E+01 RR= 9.194874085391963E-06
2374859.500000000 = A.D. 1790-Jan-16 00:00:00.0000 TDB 
 X =-2.710495555329307E+01 Y =-1.352933959239118E+01 Z = 9.026837944608004E-01
 VX= 1.383310199743904E-03 VY=-2.790008979824089E-03 VZ= 2.559143113062432E-05
 LT= 1.750407526296286E-01 RG= 3.030736681707962E+01 RR= 9.090807697252506E-06
2374900.500000000 = A.D. 1790-Feb-26 00:00:00.0000 TDB 
 X =-2.704799756581569E+01 Y =-1.364360858870450E+01 Z = 9.037249659475418E-01
 VX= 1.395124010011497E-03 VY=-2.784080114239583E-03 VZ= 2.519734808587538E-05
 LT= 1.750428929522622E-01 RG= 3.030773740245582E+01 RR= 8.986484223576033E-06
2374941.500000000 = A.D. 1790-Apr-08 00:00:00.0000 TDB 
 X =-2.699055573051245E+01 Y =-1.375763348295468E+01 Z = 9.047499709973930E-01
 VX= 1.406912500245344E-03 VY=-2.778101580133128E-03 VZ= 2.480282554612818E-05
 LT= 1.750450085402928E-01 RG= 3.030810370516826E+01 RR= 8.881896088730102E-06
2374982.500000000 = A.D. 1790-May-19 00:00:00.0000 TDB 
 X =-2.693263108950085E+01 Y =-1.387141224096261E+01 Z = 9.057587917258021E-01
 VX= 1.418675475455285E-03 VY=-2.772073486601213E-03 VZ= 2.440787009156539E-05
 LT= 1.750470993302658E-01 RG= 3.030846571423013E+01 RR= 8.777036889940859E-06
2375023.500000000 = A.D. 1790-Jun-29 00:00:00.0000 TDB 
 X =-2.687422469289635E+01 Y =-1.398494283305576E+01 Z = 9.067514105188192E-01
 VX= 1.430412740587286E-03 VY=-2.765995944333232E-03 VZ= 2.401248833845148E-05
 LT= 1.750491652573365E-01 RG= 3.030882341841392E+01 RR= 8.671901178163531E-06
2375064.500000000 = A.D. 1790-Aug-09 00:00:00.0000 TDB 
 X =-2.681533759880644E+01 Y =-1.409822323413465E+01 Z = 9.077278100341338E-01
 VX= 1.442124100798743E-03 VY=-2.759869065798073E-03 VZ= 2.361668692164347E-05
 LT= 1.750512062554565E-01 RG= 3.030917680628370E+01 RR= 8.566484318249773E-06
2375105.500000000 = A.D. 1790-Sep-19 00:00:00.0000 TDB 
 X =-2.675597087333106E+01 Y =-1.421125142375277E+01 Z = 9.086879732022051E-01
 VX= 1.453809360984577E-03 VY=-2.753692965485959E-03 VZ= 2.322047251689797E-05
 LT= 1.750532222576353E-01 RG= 3.030952586624043E+01 RR= 8.460783045595647E-06
2375146.500000000 = A.D. 1790-Oct-30 00:00:00.0000 TDB 
 X =-2.669612559057740E+01 Y =-1.432402538619635E+01 Z = 9.096318832283048E-01
 VX= 1.465468325663286E-03 VY=-2.747467759769097E-03 VZ= 2.282385185405610E-05
 LT= 1.750552131962793E-01 RG= 3.030987058658061E+01 RR= 8.354795524100076E-06
2375187.500000000 = A.D. 1790-Dec-10 00:00:00.0000 TDB 
 X =-2.663580283267777E+01 Y =-1.443654311056359E+01 Z = 9.105595235947325E-01
 VX= 1.477100798764787E-03 VY=-2.741193567017794E-03 VZ= 2.242683171739971E-05
 LT= 1.750571790035502E-01 RG= 3.031021095555844E+01 RR= 8.248521606568643E-06
2375228.500000000 = A.D. 1791-Jan-20 00:00:00.0000 TDB 
 X =-2.657500368982099E+01 Y =-1.454880259084308E+01 Z = 9.114708780631852E-01
 VX= 1.488706583397206E-03 VY=-2.734870507335801E-03 VZ= 2.202941895208290E-05
 LT= 1.750591196117947E-01 RG= 3.031054696146011E+01 RR= 8.141962929773364E-06
